start=new Date('2022-05-01T00:00:00.000Z').valueOf();
sats=[{"PERIAPSIS":"348.784","MEAN_MOTION":"15.73193707","DECAY_DATE":null,"TIME_SYSTEM":"UTC","SEMIMAJOR_AXIS":"6727.913","MEAN_MOTION_DOT":"-0.00003306","RCS_SIZE":"LARGE","BSTAR":"-0.00001914900000","TLE_LINE2":"2 52309  53.2164 329.0920 0001477  58.8575 356.0766 15.73193707  2103","TLE_LINE1":"1 52309U 22041BA  22120.91667824 -.00003306  00000-0 -19149-4 0  9990","ELEMENT_SET_NO":"999","PERIOD":"91.534","RA_OF_ASC_NODE":"329.0920","GP_ID":"202394195","NORAD_CAT_ID":"52309","APOAPSIS":"350.772","OBJECT_ID":"2022-041BA","REV_AT_EPOCH":"210","EPOCH":"2022-04-30T22:00:00.999936","COUNTRY_CODE":"US","MEAN_ELEMENT_THEORY":"SGP4","OBJECT_TYPE":"PAYLOAD","MEAN_ANOMALY":"356.0766","ARG_OF_PERICENTER":"58.8575","CLASSIFICATION_TYPE":"U","FILE":"3423346","LAUNCH_DATE":"2022-04-21","MEAN_MOTION_DDOT":"0.0000000000000","EPHEMERIS_TYPE":"0","CENTER_NAME":"EARTH","INCLINATION":"53.2164","ECCENTRICITY":"0.00014770","OBJECT_NAME":"STARLINK-3756","SITE":"AFETR","REF_FRAME":"TEME"},{"EPOCH":"2022-04-30T22:00:00.999936","REV_AT_EPOCH":"210","ARG_OF_PERICENTER":"53.1678","CLASSIFICATION_TYPE":"U","COUNTRY_CODE":"US","OBJECT_TYPE":"PAYLOAD","MEAN_ANOMALY":"3.5868","MEAN_ELEMENT_THEORY":"SGP4","EPHEMERIS_TYPE":"0","CENTER_NAME":"EARTH","INCLINATION":"53.2170","MEAN_MOTION_DDOT":"0.0000000000000","FILE":"3423346","LAUNCH_DATE":"2022-04-21","REF_FRAME":"TEME","SITE":"AFETR","ECCENTRICITY":"0.00014440","OBJECT_NAME":"STARLINK-3688","SEMIMAJOR_AXIS":"6728.174","MEAN_MOTION_DOT":"0.00165722","MEAN_MOTION":"15.73102364","TIME_SYSTEM":"UTC","DECAY_DATE":null,"PERIAPSIS":"349.067","RCS_SIZE":"LARGE","BSTAR":"0.00116690000000","TLE_LINE2":"2 52310  53.2170 329.0878 0001444  53.1678   3.5868 15.73102364  2106","RA_OF_ASC_NODE":"329.0878","GP_ID":"202394606","PERIOD":"91.539","ELEMENT_SET_NO":"999","TLE_LINE1":"1 52310U 22041BB  22120.91667824  .00165722  00000-0  11669-2 0  9998","OBJECT_ID":"2022-041BB","APOAPSIS":"351.010","NORAD_CAT_ID":"52310"},{"EPOCH":"2022-04-30T22:00:00.999936","REV_AT_EPOCH":"210","COUNTRY_CODE":"US","OBJECT_TYPE":"PAYLOAD","MEAN_ELEMENT_THEORY":"SGP4","MEAN_ANOMALY":"357.7053","CLASSIFICATION_TYPE":"U","ARG_OF_PERICENTER":"58.4911","MEAN_MOTION_DDOT":"0.0000000000000","FILE":"3423346","LAUNCH_DATE":"2022-04-21","CENTER_NAME":"EARTH","EPHEMERIS_TYPE":"0","INCLINATION":"53.2169","ECCENTRICITY":"0.00014060","OBJECT_NAME":"STARLINK-3750","REF_FRAME":"TEME","SITE":"AFETR","MEAN_MOTION":"15.73033395","DECAY_DATE":null,"TIME_SYSTEM":"UTC","PERIAPSIS":"349.289","SEMIMAJOR_AXIS":"6728.370","MEAN_MOTION_DOT":"0.00273449","RCS_SIZE":"LARGE","TLE_LINE2":"2 52311  53.2169 329.0896 0001406  58.4911 357.7053 15.73033395  2108","BSTAR":"0.00190350000000","TLE_LINE1":"1 52311U 22041BC  22120.91667824  .00273449  00000-0  19035-2 0  9990","RA_OF_ASC_NODE":"329.0896","GP_ID":"202394771","ELEMENT_SET_NO":"999","PERIOD":"91.543","APOAPSIS":"351.181","NORAD_CAT_ID":"52311","OBJECT_ID":"2022-041BC"},{"INCLINATION":"53.2175","EPHEMERIS_TYPE":"0","CENTER_NAME":"EARTH","FILE":"3423346","LAUNCH_DATE":"2022-04-21","MEAN_MOTION_DDOT":"0.0000000000000","SITE":"AFETR","REF_FRAME":"TEME","OBJECT_NAME":"STARLINK-3752","ECCENTRICITY":"0.00013630","REV_AT_EPOCH":"210","EPOCH":"2022-04-30T22:00:00.999936","CLASSIFICATION_TYPE":"U","ARG_OF_PERICENTER":"55.9404","OBJECT_TYPE":"PAYLOAD","MEAN_ANOMALY":"1.3583","MEAN_ELEMENT_THEORY":"SGP4","COUNTRY_CODE":"US","ELEMENT_SET_NO":"999","PERIOD":"91.533","GP_ID":"202394360","RA_OF_ASC_NODE":"329.0870","TLE_LINE1":"1 52312U 22041BD  22120.91667824 -.00008998  00000-0 -59736-4 0  9992","OBJECT_ID":"2022-041BD","NORAD_CAT_ID":"52312","APOAPSIS":"350.650","MEAN_MOTION_DOT":"-0.00008998","SEMIMAJOR_AXIS":"6727.868","PERIAPSIS":"348.816","TIME_SYSTEM":"UTC","DECAY_DATE":null,"MEAN_MOTION":"15.73209506","BSTAR":"-0.00005973600000","TLE_LINE2":"2 52312  53.2175 329.0870 0001363  55.9404   1.3583 15.73209506  2108","RCS_SIZE":"LARGE"},{"REV_AT_EPOCH":"210","EPOCH":"2022-04-30T22:00:00.999936","CLASSIFICATION_TYPE":"U","ARG_OF_PERICENTER":"55.9022","COUNTRY_CODE":"US","MEAN_ANOMALY":"1.9937","OBJECT_TYPE":"PAYLOAD","MEAN_ELEMENT_THEORY":"SGP4","EPHEMERIS_TYPE":"0","CENTER_NAME":"EARTH","INCLINATION":"53.2176","FILE":"3423346","LAUNCH_DATE":"2022-04-21","MEAN_MOTION_DDOT":"0.0000000000000","SITE":"AFETR","REF_FRAME":"TEME","OBJECT_NAME":"STARLINK-3749","ECCENTRICITY":"0.00012830","SEMIMAJOR_AXIS":"6727.874","MEAN_MOTION_DOT":"-0.00005945","PERIAPSIS":"348.876","MEAN_MOTION":"15.73207365","DECAY_DATE":null,"TIME_SYSTEM":"UTC","RCS_SIZE":"LARGE","TLE_LINE2":"2 52313  53.2176 329.0864 0001283  55.9022   1.9937 15.73207365  2100","BSTAR":"-0.00003795800000","ELEMENT_SET_NO":"999","PERIOD":"91.533","RA_OF_ASC_NODE":"329.0864","GP_ID":"202394524","TLE_LINE1":"1 52313U 22041BE  22120.91667824 -.00005945  00000-0 -37958-4 0  9994","OBJECT_ID":"2022-041BE","NORAD_CAT_ID":"52313","APOAPSIS":"350.602"}];
